NORAD_CAT_ID,OBJECT_NAME,OBJECT_TYPE,EPOCH,MEAN_MOTION,ECCENTRICITY,INCLINATION,RA_OF_ASC_NODE,ARG_OF_PERICENTER,MEAN_ANOMALY,BSTAR,MEAN_MOTION_DOT,MEAN_MOTION_DDOT,TLE_LINE0,TLE_LINE1,TLE_LINE2,SEMIMAJOR_AXIS,PERIOD,APOGEE,PERIGEE,DECAYED
55397.0,STARLINK-5224,PAYLOAD,2024-05-25 00:53:23,14.98341039,0.0003841,70.0007,252.6966,271.7835,88.2884,0.00035797,4.182e-05,0.0,0 STARLINK-5224,1 55397U 23014G   24146.03707638  .00004182  00000-0  35797-3 0  9999,2 55397  70.0007 252.6966 0003841 271.7835  88.2884 14.98341039 73695,6950.159,96.106,574.693,569.354,0.0
55397.0,STARLINK-5224,PAYLOAD,2024-05-25 13:42:29,14.98323199,0.0003064,70.0013,251.3525,269.8232,90.2576,-1.4455e-06,-1.1e-06,0.0,0 STARLINK-5224,1 55397U 23014G   24146.57117016 -.00000110  00000-0 -14455-5 0  9992,2 55397  70.0013 251.3525 0003064 269.8232  90.2576 14.98323199 73772,6950.214,96.107,574.208,569.949,0.0
55397.0,STARLINK-5224,PAYLOAD,2024-05-26 12:08:21,14.98331266,0.0003091,70.0014,248.9939,272.7305,87.35,0.00017502,1.996e-05,0.0,0 STARLINK-5224,1 55397U 23014G   24147.50580788  .00001996  00000-0  17502-3 0  9991,2 55397  70.0014 248.9939 0003091 272.7305  87.3500 14.98331266 73912,6950.189,96.107,574.202,569.906,0.0
55397.0,STARLINK-5224,PAYLOAD,2024-05-26 13:44:29,14.98333865,0.0002933,70.0015,248.8269,269.5087,90.5736,0.0002055,2.36e-05,0.0,0 STARLINK-5224,1 55397U 23014G   24147.57256689  .00002360  00000-0  20550-3 0  9991,2 55397  70.0015 248.8269 0002933 269.5087  90.5736 14.98333865 74862,6950.181,96.107,574.084,570.007,0.0
55397.0,STARLINK-5224,PAYLOAD,2024-05-26 16:56:45,14.98338155,0.0003014,70.0014,248.4897,268.4549,91.6265,0.00034868,4.071e-05,0.0,0 STARLINK-5224,1 55397U 23014G   24147.70608571  .00004071  00000-0  34868-3 0  9995,2 55397  70.0014 248.4897 0003014 268.4549  91.6265 14.98338155 74884,6950.168,96.106,574.127,569.938,0.0
55397.0,STARLINK-5224,PAYLOAD,2024-05-27 12:10:22,14.98338726,0.0002741,70.0018,246.4704,267.3552,92.7293,0.00037225,4.352e-05,0.0,0 STARLINK-5224,1 55397U 23014G   24148.50720534  .00004352  00000-0  37225-3 0  9990,2 55397  70.0018 246.4704 0002741 267.3552  92.7293 14.98338726 74068,6950.166,96.106,573.936,570.126,0.0
55397.0,STARLINK-5224,PAYLOAD,2024-05-27 13:46:30,14.98339173,0.0002747,70.0017,246.3021,267.1421,92.9424,0.00036429,4.257e-05,0.0,0 STARLINK-5224,1 55397U 23014G   24148.57396501  .00004257  00000-0  36429-3 0  9999,2 55397  70.0017 246.3021 0002747 267.1421  92.9424 14.98339173 75018,6950.165,96.106,573.939,570.12,0.0
55397.0,STARLINK-5224,PAYLOAD,2024-05-27 16:58:46,14.98341242,0.0002759,70.0017,245.9654,269.0345,91.0498,0.00037827,4.425e-05,0.0,0 STARLINK-5224,1 55397U 23014G   24148.70748394  .00004425  00000-0  37827-3 0  9995,2 55397  70.0017 245.9654 0002759 269.0345  91.0498 14.98341242 75037,6950.158,96.106,573.941,570.106,0.0
55397.0,STARLINK-5224,PAYLOAD,2024-05-28 12:12:23,14.98336738,0.0002707,70.0014,243.945,264.555,95.53,0.00014327,1.617e-05,0.0,0 STARLINK-5224,1 55397U 23014G   24149.50860200  .00001617  00000-0  14327-3 0  9995,2 55397  70.0014 243.9450 0002707 264.5550  95.5300 14.98336738 74211,6950.172,96.107,573.918,570.156,0.0
55397.0,STARLINK-5224,PAYLOAD,2024-05-28 13:48:31,14.98335134,0.0002733,70.0014,243.7768,264.8465,95.2382,9.7656e-05,1.073e-05,0.0,0 STARLINK-5224,1 55397U 23014G   24149.57536232  .00001073  00000-0  97656-4 0  9990,2 55397  70.0014 243.7768 0002733 264.8465  95.2382 14.98335134 75169,6950.177,96.107,573.941,570.143,0.0
55397.0,STARLINK-5224,PAYLOAD,2024-05-28 15:24:39,14.98335647,0.0002747,70.0014,243.6086,267.0574,93.0271,7.0161e-05,7.44e-06,0.0,0 STARLINK-5224,1 55397U 23014G   24149.64212184  .00000744  00000-0  70161-4 0  9991,2 55397  70.0014 243.6086 0002747 267.0574  93.0271 14.98335647 75175,6950.175,96.107,573.95,570.131,0.0
55397.0,STARLINK-5224,PAYLOAD,2024-05-29 12:14:24,14.98333326,0.0002758,70.0004,241.4204,263.942,96.1425,3.7036e-05,3.49e-06,0.0,0 STARLINK-5224,1 55397U 23014G   24150.51000327  .00000349  00000-0  37036-4 0  9998,2 55397  70.0004 241.4204 0002758 263.9420  96.1425 14.98333326 74366,6950.183,96.107,573.964,570.131,0.0
55397.0,STARLINK-5224,PAYLOAD,2024-05-29 13:50:32,14.9833144,0.0002779,70.0003,241.2517,262.6955,97.3888,3.1621e-05,2.84e-06,0.0,0 STARLINK-5224,1 55397U 23014G   24150.57676431  .00000284  00000-0  31621-4 0  9991,2 55397  70.0003 241.2517 0002779 262.6955  97.3888 14.98331440 75319,6950.188,96.107,573.985,570.122,0.0
55397.0,STARLINK-5224,PAYLOAD,2024-05-29 15:26:40,14.98330868,0.0002708,70.0005,241.0836,260.845,99.2403,3.4285e-05,3.16e-06,0.0,0 STARLINK-5224,1 55397U 23014G   24150.64352440  .00000316  00000-0  34285-4 0  9995,2 55397  70.0005 241.0836 0002708 260.8450  99.2403 14.98330868 75323,6950.19,96.107,573.937,570.173,0.0
55397.0,STARLINK-5224,PAYLOAD,2024-05-30 12:16:24,14.9833438,0.0002828,70.0003,238.8957,261.4206,98.6633,9.548e-05,1.047e-05,0.0,0 STARLINK-5224,1 55397U 23014G   24151.51140038  .00001047  00000-0  95480-4 0  9996,2 55397  70.0003 238.8957 0002828 261.4206  98.6633 14.98334380 74519,6950.179,96.107,574.01,570.079,0.0
55397.0,STARLINK-5224,PAYLOAD,2024-05-30 13:52:33,14.98334565,0.0002826,70.0003,238.7274,261.4697,98.6142,9.5392e-05,1.046e-05,0.0,0 STARLINK-5224,1 55397U 23014G   24151.57816012  .00001046  00000-0  95392-4 0  9995,2 55397  70.0003 238.7274 0002826 261.4697  98.6142 14.98334565 75467,6950.179,96.107,574.008,570.08,0.0
55397.0,STARLINK-5224,PAYLOAD,2024-05-30 15:28:41,14.98334845,0.0002832,70.0003,238.559,262.0349,98.0488,9.5339e-05,1.045e-05,0.0,0 STARLINK-5224,1 55397U 23014G   24151.64491979  .00001045  00000-0  95339-4 0  9994,2 55397  70.0003 238.5590 0002832 262.0349  98.0488 14.98334845 75473,6950.178,96.107,574.011,570.075,0.0
55397.0,STARLINK-5224,PAYLOAD,2024-05-31 12:18:25,14.9833513,0.0002875,70.0001,236.3711,264.2933,95.7899,0.00014645,1.655e-05,0.0,0 STARLINK-5224,1 55397U 23014G   24152.51279741  .00001655  00000-0  14645-3 0  9999,2 55397  70.0001 236.3711 0002875 264.2933  95.7899 14.98335130 74660,6950.177,96.107,574.04,570.044,0.0
55397.0,STARLINK-5224,PAYLOAD,2024-05-31 13:54:33,14.98336203,0.0002845,70.0001,236.2029,263.2204,96.8632,0.00015891,1.804e-05,0.0,0 STARLINK-5224,1 55397U 23014G   24152.57955634  .00001804  00000-0  15891-3 0  9997,2 55397  70.0001 236.2029 0002845 263.2204  96.8632 14.98336203 75613,6950.174,96.107,574.016,570.061,0.0
55397.0,STARLINK-5224,PAYLOAD,2024-05-31 15:30:41,14.9833651,0.0002849,70.0001,236.0346,263.6177,96.4657,0.00015991,1.816e-05,0.0,0 STARLINK-5224,1 55397U 23014G   24152.64631605  .00001816  00000-0  15991-3 0  9998,2 55397  70.0001 236.0346 0002849 263.6177  96.4657 14.98336510 75625,6950.173,96.107,574.018,570.058,0.0
55397.0,STARLINK-5224,PAYLOAD,2024-05-31 23:31:23,14.98294203,0.0002782,69.9995,235.1915,269.661,90.423,0.00073488,8.678e-05,0.0,0 STARLINK-5224,1 55397U 23014G   24152.98013608  .00008678  00000-0  73488-3 0  9990,2 55397  69.9995 235.1915 0002782 269.6610  90.4230 14.98294203 74734,6950.304,96.109,574.102,570.235,0.0
55397.0,STARLINK-5224,PAYLOAD,2024-06-01 12:20:27,14.98327979,0.0002965,69.9996,233.8451,269.3637,90.7183,-1.8584e-05,-3.15e-06,0.0,0 STARLINK-5224,1 55397U 23014G   24153.51420469 -.00000315  00000-0 -18584-4 0  9996,2 55397  69.9996 233.8451 0002965 269.3637  90.7183 14.98327979 74810,6950.199,96.107,574.125,570.003,0.0
55397.0,STARLINK-5224,PAYLOAD,2024-06-01 13:56:35,14.98327756,0.0002967,69.9996,233.6768,269.4368,90.6451,-2.2186e-05,-3.58e-06,0.0,0 STARLINK-5224,1 55397U 23014G   24153.58096493 -.00000358  00000-0 -22186-4 0  9999,2 55397  69.9996 233.6768 0002967 269.4368  90.6451 14.98327756 75768,6950.2,96.107,574.127,570.003,0.0
55397.0,STARLINK-5224,PAYLOAD,2024-06-02 04:21:47,14.98333643,0.0002913,69.9997,232.1619,270.386,89.6966,5.2455e-05,5.33e-06,0.0,0 STARLINK-5224,1 55397U 23014G   24154.18179961  .00000533  00000-0  52455-4 0  9993,2 55397  69.9997 232.1619 0002913 270.3860  89.6966 14.98333643 74914,6950.182,96.107,574.071,570.022,0.0
55397.0,STARLINK-5224,PAYLOAD,2024-06-02 12:22:27,14.98367903,0.0002777,70.0,231.3205,263.8919,96.1924,-0.00055861,-6.758e-05,0.0,0 STARLINK-5224,1 55397U 23014G   24154.51559046 -.00006758  00000-0 -55861-3 0  9996,2 55397  70.0000 231.3205 0002777 263.8919  96.1924 14.98367903 74962,6950.076,96.105,573.871,570.011,0.0
55397.0,STARLINK-5224,PAYLOAD,2024-06-02 21:59:16,14.98333865,0.0002905,69.9999,230.3106,270.8933,89.1894,7.2173e-05,7.68e-06,0.0,0 STARLINK-5224,1 55397U 23014G   24154.91615790  .00000768  00000-0  72173-4 0  9998,2 55397  69.9999 230.3106 0002905 270.8933  89.1894 14.98333865 75961,6950.181,96.107,574.065,570.027,0.0
55397.0,STARLINK-5224,PAYLOAD,2024-06-03 04:23:48,14.98328447,0.0002973,69.9998,229.6374,269.4,90.6818,0.00011608,1.292e-05,0.0,0 STARLINK-5224,1 55397U 23014G   24155.18320079  .00001292  00000-0  11608-3 0  9999,2 55397  69.9998 229.6374 0002973 269.4000  90.6818 14.98328447 75066,6950.198,96.107,574.129,569.996,0.0
55397.0,STARLINK-5224,PAYLOAD,2024-06-03 12:24:28,14.98330587,0.0002961,69.9998,228.7963,267.0924,92.9896,0.00012145,1.356e-05,0.0,0 STARLINK-5224,1 55397U 23014G   24155.51699989  .00001356  00000-0  12145-3 0  9993,2 55397  69.9998 228.7963 0002961 267.0924  92.9896 14.98330587 76055,6950.191,96.107,574.114,569.998,0.0
55397.0,STARLINK-5224,PAYLOAD,2024-06-03 22:01:16,14.98353267,0.0003091,69.9999,227.786,273.4193,86.6612,-0.00026743,-3.284e-05,0.0,0 STARLINK-5224,1 55397U 23014G   24155.91755149 -.00003284  00000-0 -26743-3 0  9991,2 55397  69.9999 227.7860 0003091 273.4193  86.6612 14.98353267 76118,6950.121,96.106,574.134,569.838,0.0
55397.0,STARLINK-5224,PAYLOAD,2024-06-04 10:50:21,14.98338644,0.0002918,69.9999,226.4396,271.4613,88.6212,9.6934e-05,1.064e-05,0.0,0 STARLINK-5224,1 55397U 23014G   24156.45163393  .00001064  00000-0  96934-4 0  9997,2 55397  69.9999 226.4396 0002918 271.4613  88.6212 14.98338644 75254,6950.166,96.106,574.059,570.003,0.0
